[Satellite]
VERSION=1.1
NAME=ARIANE 5 R/B
NICKNAME=ARIANE 5 R/B
TLE1=1 45248U 20013D   20076.61688594  .00000568  00000-0  31017-3 0  9995
TLE2=2 45248   5.6762 303.2098 7263412 197.2510 110.0317  2.29866632   610
STATUS=0
